STARLINK-32246          
1 60432U 24144H   26068.72540699 -.00002419  00000+0 -69639-4 0  9998
2 60432  53.1605 217.0336 0001159  99.4458 260.6674 15.30175002 89310
2025-313BC              
1 67298U 25313BC  26068.18968176  .00075331  00000+0  26410-2 0  9997
2 67298  97.3985 144.8110 0008478 328.9209  31.1528 15.29126358  7890
